OBJECT_NAME,OBJECT_ID,EPOCH,MEAN_MOTION,ECCENTRICITY,INCLINATION,RA_OF_ASC_NODE,ARG_OF_PERICENTER,MEAN_ANOMALY,EPHEMERIS_TYPE,CLASSIFICATION_TYPE,NORAD_CAT_ID,ELEMENT_SET_NO,REV_AT_EPOCH,BSTAR,MEAN_MOTION_DOT,MEAN_MOTION_DDOT
BEIDOU-3 M26 (C48),2023-207B,2026-06-17T15:12:35.116992,1.86229688,.0003074,55.7554,62.2745,320.8163,39.2030,0,U,58655,999,1683,0,-.55E-6,0
GSAT0225 (GALILEO 29),2024-079A,2026-06-19T10:45:59.205024,1.70473881,.00015339,55.1213,101.0165,302.7942,230.7595,0,U,59598,999,1335,0,-.13E-6,0
GSAT0227 (GALILEO 30),2024-079C,2026-06-19T08:22:51.740544,1.70473950,.00022017,55.1161,101.0181,52.0058,307.9926,0,U,59600,999,1340,0,-.13E-6,0
GSAT0232 (GALILEO 32),2024-167A,2026-06-19T15:35:05.801280,1.70474331,.00061863,55.1842,221.2460,227.8981,171.9033,0,U,61182,999,1092,0,.26E-6,0
GSAT0226 (GALILEO 31),2024-167B,2026-06-20T03:06:27.212832,1.70474300,.0003009,55.1827,221.2399,230.8244,194.9670,0,U,61183,999,1090,0,.26E-6,0
BEIDOU-3 M25 (C47),2024-168B,2026-06-19T20:58:23.966400,1.86230002,.0003007,54.4707,302.1484,300.7544,238.5226,0,U,61186,999,1183,0,-.88E-6,0
BEIDOU-3 M27 (C49),2024-168C,2026-06-20T04:57:07.262784,1.86230092,.00015257,54.4656,302.1197,51.4766,125.7161,0,U,61187,999,931,0,-.9E-6,0
GPS BIII-7  (PRN 01),2024-242A,2026-06-20T01:54:13.834656,2.00571569,.0017493,54.8474,334.0632,4.3355,173.0364,0,U,62339,999,1131,0,-.95E-6,0
QZS-6 (QZSS/PRN 200),2025-023A,2026-06-20T02:59:36.111264,1.00270097,.00018807,0.0607,73.3973,19.4849,310.8654,0,U,62876,999,497,0,-.238E-5,0
COSMOS 2584 (704K),2025-042A,2026-06-19T22:56:24.809280,2.13103910,.00051351,65.0856,72.7078,219.8892,140.1108,0,U,63130,999,1010,0,-.37E-6,0
GPS BIII-8  (PRN 21),2025-116A,2026-06-19T19:56:38.651424,2.00575689,.000858,55.2365,31.0232,338.6796,202.2641,0,U,64202,999,792,0,-.93E-6,0
COSMOS 2596 (708K),2025-206B,2026-06-18T10:24:28.997280,2.13100598,.0010998,64.6338,314.9413,311.7055,76.8578,0,U,65590,999,594,0,-.57E-6,0
GSAT0233 (GALILEO 33),2025-302A,2026-06-19T13:54:53.251200,1.70473973,.00007672,54.3370,102.0625,220.2514,324.6772,0,U,67160,999,316,0,-.13E-6,0
GSAT0234 (GALILEO 34),2025-302C,2026-06-18T02:34:08.632704,1.70473903,.00029627,54.3376,102.1035,311.0872,230.0912,0,U,67162,999,319,0,-.12E-6,0
GPS BIII-9  (PRN 20),2026-017A,2026-06-17T04:44:06.594720,2.00571090,.00220809,55.0883,88.7549,258.4523,101.2987,0,U,67588,999,43161,0,-.21E-6,0
GPS BIII-10 (PRN 13),2026-087A,2026-06-19T09:48:38.619648,2.00570427,.00206003,54.9628,207.6996,106.9834,255.2232,0,U,68791,999,88,0,.31E-6,0
